{"type": "FeatureCollection", "features": [{"type": "Feature", "properties": {"norad_id": 28054, "name": "DMSP 5D-3 F16 (USA 172)", "group": "weather", "lat": -43.64530214079786, "lon": 172.13918199006878, "alt_km": 852.2973957849354, "timestamp": "2025-12-09T09:46:47.290196+00:00", "meta": {"OBJECT_NAME": "DMSP 5D-3 F16 (USA 172)", "OBJECT_ID": "2003-048A", "EPOCH": "2025-12-08T22:49:21.991008", "MEAN_MOTION": 14.14422062, "ECCENTRICITY": 0.00066415, "INCLINATION": 99.0048, "RA_OF_ASC_NODE": 0.3781, "ARG_OF_PERICENTER": 332.6225, "MEAN_ANOMALY": 88.3046, "EPHEMERIS_TYPE": 0, "CLASSIFICATION_TYPE": "U", "NORAD_CAT_ID": 28054, "ELEMENT_SET_NO": 999, "REV_AT_EPOCH": 14259, "BSTAR": 0.00013294748, "MEAN_MOTION_DOT": 2.09e-06, "MEAN_MOTION_DDOT": 0}, "tle": {"line1": "1 28054U 03048A   25342.95094897  .00000209  00000+0  13295-3 0  9994", "line2": "2 28054  99.0048   0.3781 0006641 332.6225  88.3046 14.14422062142596"}}, "geometry": {"type": "Point", "coordinates": [172.13918199006878, -43.64530214079786]}}, {"type": "Feature", "properties": {"norad_id": 28912, "name": "METEOSAT-9 (MSG-2)", "group": "weather", "lat": -5.094621275943106, "lon": -89.57508885814285, "alt_km": 35771.226517181596, "timestamp": "2025-12-09T09:46:47.290247+00:00", "meta": {"OBJECT_NAME": "METEOSAT-9 (MSG-2)", "OBJECT_ID": "2005-049B", "EPOCH": "2025-12-08T20:40:05.249568", "MEAN_MOTION": 1.00274262, "ECCENTRICITY": 0.00038396, "INCLINATION": 8.931, "RA_OF_ASC_NODE": 56.0124, "ARG_OF_PERICENTER": 190.0622, "MEAN_ANOMALY": 187.4345, "EPHEMERIS_TYPE": 0, "CLASSIFICATION_TYPE": "U", "NORAD_CAT_ID": 28912, "ELEMENT_SET_NO": 999, "REV_AT_EPOCH": 509, "BSTAR": 0, "MEAN_MOTION_DOT": 1.23e-06, "MEAN_MOTION_DDOT": 0}, "tle": {"line1": "1 28912U 05049B   25342.86117187  .00000123  00000+0  00000+0 0  9999", "line2": "2 28912   8.9310  56.0124 0003839 190.0622 187.4345  1.00274262  5096"}}, "geometry": {"type": "Point", "coordinates": [-89.57508885814285, -5.094621275943106]}}, {"type": "Feature", "properties": {"norad_id": 29522, "name": "DMSP 5D-3 F17 (USA 191)", "group": "weather", "lat": 20.9027856688558, "lon": 172.23388107583838, "alt_km": 840.8802666922047, "timestamp": "2025-12-09T09:46:47.290265+00:00", "meta": {"OBJECT_NAME": "DMSP 5D-3 F17 (USA 191)", "OBJECT_ID": "2006-050A", "EPOCH": "2025-12-08T22:50:53.315808", "MEAN_MOTION": 14.14916948, "ECCENTRICITY": 0.00092765, "INCLINATION": 98.7393, "RA_OF_ASC_NODE": 348.42, "ARG_OF_PERICENTER": 236.5892, "MEAN_ANOMALY": 123.4395, "EPHEMERIS_TYPE": 0, "CLASSIFICATION_TYPE": "U", "NORAD_CAT_ID": 29522, "ELEMENT_SET_NO": 999, "REV_AT_EPOCH": 98551, "BSTAR": 0.00015613481, "MEAN_MOTION_DOT": 2.58e-06, "MEAN_MOTION_DDOT": 0}, "tle": {"line1": "1 29522U 06050A   25342.95200597  .00000258  00000+0  15613-3 0  9997", "line2": "2 29522  98.7393 348.4200 0009276 236.5892 123.4395 14.14916948985513"}}, "geometry": {"type": "Point", "coordinates": [172.23388107583838, 20.9027856688558]}}, {"type": "Feature", "properties": {"norad_id": 32958, "name": "FENGYUN 3A", "group": "weather", "lat": 2.0945523142101563, "lon": 103.32416636970338, "alt_km": 834.3026741510384, "timestamp": "2025-12-09T09:46:47.290278+00:00", "meta": {"OBJECT_NAME": "FENGYUN 3A", "OBJECT_ID": "2008-026A", "EPOCH": "2025-12-08T19:24:39.976992", "MEAN_MOTION": 14.19512827, "ECCENTRICITY": 0.00080792, "INCLINATION": 98.6693, "RA_OF_ASC_NODE": 282.4185, "ARG_OF_PERICENTER": 322.7735, "MEAN_ANOMALY": 37.2881, "EPHEMERIS_TYPE": 0, "CLASSIFICATION_TYPE": "U", "NORAD_CAT_ID": 32958, "ELEMENT_SET_NO": 999, "REV_AT_EPOCH": 90839, "BSTAR": 0.00014393123, "MEAN_MOTION_DOT": 2.6e-06, "MEAN_MOTION_DDOT": 0}, "tle": {"line1": "1 32958U 08026A   25342.80879603  .00000260  00000+0  14393-3 0  9990", "line2": "2 32958  98.6693 282.4185 0008079 322.7735  37.2881 14.19512827908391"}}, "geometry": {"type": "Point", "coordinates": [103.32416636970338, 2.0945523142101563]}}, {"type": "Feature", "properties": {"norad_id": 35491, "name": "GOES 14", "group": "weather", "lat": 0.6344771067148576, "lon": 116.74882578024784, "alt_km": 35795.09114961081, "timestamp": "2025-12-09T09:46:47.290296+00:00", "meta": {"OBJECT_NAME": "GOES 14", "OBJECT_ID": "2009-033A", "EPOCH": "2025-12-09T04:30:43.606080", "MEAN_MOTION": 1.00273167, "ECCENTRICITY": 0.0004048, "INCLINATION": 1.1903, "RA_OF_ASC_NODE": 85.4457, "ARG_OF_PERICENTER": 154.7697, "MEAN_ANOMALY": 157.3472, "EPHEMERIS_TYPE": 0, "CLASSIFICATION_TYPE": "U", "NORAD_CAT_ID": 35491, "ELEMENT_SET_NO": 999, "REV_AT_EPOCH": 468, "BSTAR": 0, "MEAN_MOTION_DOT": -6.6e-07, "MEAN_MOTION_DDOT": 0}, "tle": {"line1": "1 35491U 09033A   25343.18800470 -.00000066  00000+0  00000+0 0  9993", "line2": "2 35491   1.1903  85.4457 0004048 154.7697 157.3472  1.00273167  4680"}}, "geometry": {"type": "Point", "coordinates": [116.74882578024784, 0.6344771067148576]}}, {"type": "Feature", "properties": {"norad_id": 35951, "name": "DMSP 5D-3 F18 (USA 210)", "group": "weather", "lat": 27.44363081160593, "lon": -44.83355551572074, "alt_km": 835.560170089967, "timestamp": "2025-12-09T09:46:47.290311+00:00", "meta": {"OBJECT_NAME": "DMSP 5D-3 F18 (USA 210)", "OBJECT_ID": "2009-057A", "EPOCH": "2025-12-08T21:46:03.281088", "MEAN_MOTION": 14.14765421, "ECCENTRICITY": 0.00121052, "INCLINATION": 98.883, "RA_OF_ASC_NODE": 319.327, "ARG_OF_PERICENTER": 72.7402, "MEAN_ANOMALY": 287.5094, "EPHEMERIS_TYPE": 0, "CLASSIFICATION_TYPE": "U", "NORAD_CAT_ID": 35951, "ELEMENT_SET_NO": 999, "REV_AT_EPOCH": 83268, "BSTAR": 0.00022833798, "MEAN_MOTION_DOT": 3.96e-06, "MEAN_MOTION_DDOT": 0}, "tle": {"line1": "1 35951U 09057A   25342.90698242  .00000396  00000+0  22834-3 0  9999", "line2": "2 35951  98.8830 319.3270 0012105  72.7402 287.5094 14.14765421832684"}}, "geometry": {"type": "Point", "coordinates": [-44.83355551572074, 27.44363081160593]}}, {"type": "Feature", "properties": {"norad_id": 36411, "name": "EWS-G2 (GOES 15)", "group": "weather", "lat": -0.30002162845028635, "lon": -73.44088314318547, "alt_km": 35764.555377300654, "timestamp": "2025-12-09T09:46:47.290324+00:00", "meta": {"OBJECT_NAME": "EWS-G2 (GOES 15)", "OBJECT_ID": "2010-008A", "EPOCH": "2025-12-09T03:35:36.436992", "MEAN_MOTION": 1.00268895, "ECCENTRICITY": 0.0005941, "INCLINATION": 0.8051, "RA_OF_ASC_NODE": 86.0557, "ARG_OF_PERICENTER": 173.1984, "MEAN_ANOMALY": 294.2311, "EPHEMERIS_TYPE": 0, "CLASSIFICATION_TYPE": "U", "NORAD_CAT_ID": 36411, "ELEMENT_SET_NO": 999, "REV_AT_EPOCH": 5773, "BSTAR": 0, "MEAN_MOTION_DOT": 4e-07, "MEAN_MOTION_DDOT": 0}, "tle": {"line1": "1 36411U 10008A   25343.14972728  .00000040  00000+0  00000+0 0  9993", "line2": "2 36411   0.8051  86.0557 0005941 173.1984 294.2311  1.00268895 57737"}}, "geometry": {"type": "Point", "coordinates": [-73.44088314318547, -0.30002162845028635]}}, {"type": "Feature", "properties": {"norad_id": 36744, "name": "COMS 1", "group": "weather", "lat": -4.314519328503369, "lon": -6.69848522370093, "alt_km": 35785.61208533266, "timestamp": "2025-12-09T09:46:47.290338+00:00", "meta": {"OBJECT_NAME": "COMS 1", "OBJECT_ID": "2010-032A", "EPOCH": "2025-12-08T23:09:51.521760", "MEAN_MOTION": 1.0027117, "ECCENTRICITY": 0.0001135, "INCLINATION": 4.3321, "RA_OF_ASC_NODE": 78.0387, "ARG_OF_PERICENTER": 200.7728, "MEAN_ANOMALY": 274.7928, "EPHEMERIS_TYPE": 0, "CLASSIFICATION_TYPE": "U", "NORAD_CAT_ID": 36744, "ELEMENT_SET_NO": 999, "REV_AT_EPOCH": 4918, "BSTAR": 0, "MEAN_MOTION_DOT": -3.43e-06, "MEAN_MOTION_DDOT": 0}, "tle": {"line1": "1 36744U 10032A   25342.96517965 -.00000343  00000+0  00000+0 0  9993", "line2": "2 36744   4.3321  78.0387 0001135 200.7728 274.7928  1.00271170 49188"}}, "geometry": {"type": "Point", "coordinates": [-6.69848522370093, -4.314519328503369]}}, {"type": "Feature", "properties": {"norad_id": 37214, "name": "FENGYUN 3B", "group": "weather", "lat": -7.816990748090147, "lon": 24.60661242269922, "alt_km": 831.3810554759466, "timestamp": "2025-12-09T09:46:47.290350+00:00", "meta": {"OBJECT_NAME": "FENGYUN 3B", "OBJECT_ID": "2010-059A", "EPOCH": "2025-12-09T05:08:09.575808", "MEAN_MOTION": 14.14786993, "ECCENTRICITY": 0.0022242, "INCLINATION": 98.9906, "RA_OF_ASC_NODE": 23.1664, "ARG_OF_PERICENTER": 7.8071, "MEAN_ANOMALY": 79.5097, "EPHEMERIS_TYPE": 0, "CLASSIFICATION_TYPE": "U", "NORAD_CAT_ID": 37214, "ELEMENT_SET_NO": 999, "REV_AT_EPOCH": 78056, "BSTAR": -3.0527e-05, "MEAN_MOTION_DOT": -1.04e-06, "MEAN_MOTION_DDOT": 0}, "tle": {"line1": "1 37214U 10059A   25343.21399972 -.00000104  00000+0 -30527-4 0  9998", "line2": "2 37214  98.9906  23.1664 0022242   7.8071  79.5097 14.14786993780562"}}, "geometry": {"type": "Point", "coordinates": [24.60661242269922, -7.816990748090147]}}, {"type": "Feature", "properties": {"norad_id": 37849, "name": "SUOMI NPP", "group": "weather", "lat": 42.75735623257776, "lon": 108.99182094468914, "alt_km": 821.9202791374582, "timestamp": "2025-12-09T09:46:47.290362+00:00", "meta": {"OBJECT_NAME": "SUOMI NPP", "OBJECT_ID": "2011-061A", "EPOCH": "2025-12-09T04:03:49.967712", "MEAN_MOTION": 14.19512488, "ECCENTRICITY": 0.000213, "INCLINATION": 98.7769, "RA_OF_ASC_NODE": 280.5431, "ARG_OF_PERICENTER": 126.4439, "MEAN_ANOMALY": 233.6934, "EPHEMERIS_TYPE": 0, "CLASSIFICATION_TYPE": "U", "NORAD_CAT_ID": 37849, "ELEMENT_SET_NO": 999, "REV_AT_EPOCH": 73148, "BSTAR": 0.00010222, "MEAN_MOTION_DOT": 1.71e-06, "MEAN_MOTION_DDOT": 0}, "tle": {"line1": "1 37849U 11061A   25343.16932833  .00000171  00000+0  10222-3 0  9990", "line2": "2 37849  98.7769 280.5431 0002130 126.4439 233.6934 14.19512488731483"}}, "geometry": {"type": "Point", "coordinates": [108.99182094468914, 42.75735623257776]}}]}